[
    {
        "Altitude(m)": 617719.7224924653,
        "Argument of Periapsis(deg)": 0.0,
        "Eccentricity": 0.0,
        "Inclination(deg)": 60.0,
        "Latitude(deg)": -41.10250894016129,
        "Longitude(deg)": 125.09458828418546,
        "Mean Anomaly(deg)": 229.09090000000003,
        "RAAN(deg)": 15.0,
        "Satellite Name": "Test1 80",
        "Satellite Number": 80,
        "Semi-Major Axis(m)": 6980739.136638005,
        "Time(s)": 0
    },
    {
        "Altitude(m)": 617911.2585181294,
        "Argument of Periapsis(deg)": 0.00010418945913296404,
        "Eccentricity": 0.0,
        "Inclination(deg)": 60.0,
        "Latitude(deg)": -41.56570153063154,
        "Longitude(deg)": 125.59899285266864,
        "Mean Anomaly(deg)": 229.71100614546188,
        "RAAN(deg)": 14.999579950860259,
        "Satellite Name": "Test1 80",
        "Satellite Number": 80,
        "Semi-Major Axis(m)": 6980739.136638005,
        "Time(s)": 10
    }
]